259P/Garradd,e,15.8941,51.4315,257.6082,2.730523,0.2184416,0.33888304,49.3014,09/22.0/2022,2000,g 15.5,4.0
# From MPEC 2022-O01
260P/McNaught,e,15.0578,349.3380,18.4357,3.623223,0.1429096,0.60935365,158.2493,09/22.0/2022,2000,g 13.5,4.0
# From MPEC 2021-J28
261P/Larson,e,6.0726,291.1252,67.2386,3.490472,0.1511395,0.42335288,179.9204,09/22.0/2022,2000,g 14.0,4.0
# From MPC 82322
262P/McNaught-Russell,e,29.2793,217.8656,171.0475,6.872094,0.0547105,0.81622840,195.7566,09/22.0/2022,2000,g 13.5,4.0
# From MPC 89018
263P/Gibbs,e,11.5218,105.5117,35.0338,3.041849,0.1857794,0.59355011,335.7417,09/22.0/2022,2000,g  9.0,4.0
# From MPC114608
264P/Larsen,e,25.3289,220.2534,346.7150,3.885944,0.1286646,0.37610834,147.3275,09/22.0/2022,2000,g 13.0,4.0
# From MPC 79870
265P/LINEAR,e,14.3640,342.9266,33.4733,4.255657,0.1122675,0.64762260,66.2200,09/22.0/2022,2000,g 14.5,4.0
# From MPEC 2021-F20
266P/Christensen,e,3.4270,4.9964,97.6847,3.531892,0.1484885,0.33978042,131.5219,09/22.0/2022,2000,g 14.7,4.0
# From MPC114608
267P/LONEOS,e,6.1427,228.5735,114.2267,3.210948,0.1712988,0.61440543,260.5271,09/22.0/2022,2000,g 19.5,4.0
# From MPC 92277
268P/Bernardi,e,15.7792,126.6804,359.8050,4.573059,0.1007845,0.47752820,277.4200,09/22.0/2022,2000,g 14.0,4.0
# From MPC104795
269P/Jedicke,e,7.0794,241.7387,225.7190,7.070084,0.0524285,0.43131290,152.8025,09/22.0/2022,2000,g 10.0,4.0
# From MPC 88332
270P/Gehrels,e,2.9235,223.0227,209.7663,6.659940,0.0573454,0.46873786,194.4556,09/22.0/2022,2000,g  8.0,4.0
# From MPC 92277
271P/van Houten-Lemmon,e,6.8723,9.3185,36.4002,7.037273,0.0527956,0.39547946,177.0740,09/22.0/2022,2000,g 11.0,4.0
# From MPEC 2022-C56
272P/NEAT,e,18.0734,109.4684,27.8941,4.460969,0.1046069,0.45478600,7.0047,09/22.0/2022,2000,g 16.0,2.0
# From MPC 82723
273P/Pons-Gambart,e,136.7262,320.3970,20.3139,31.95671,0.0054558,0.97430051,0.0000,12/20.9114/2012,2000,g 11.5,4.0
# From MPEC 2022-M21
274P/Tombaugh-Tenagra,e,15.8151,81.3348,38.4700,4.376648,0.1076444,0.43949734,17.9272,09/22.0/2022,2000,g 13.0,4.0
# From MPC 81862
275P/Hermann,e,21.2745,348.7569,173.9798,5.777464,0.0709738,0.71278593,253.5503,09/22.0/2022,2000,g 17.0,4.0
# From MPEC 2022-R68
276P/Vorobjov,e,14.8104,211.3551,199.5206,5.324010,0.0802317,0.26781822,294.7569,09/22.0/2022,2000,g 11.5,4.0
# From MPEC 2021-F20
277P/LINEAR,e,16.7776,276.3165,152.3243,3.853451,0.1302955,0.50604883,82.1783,09/22.0/2022,2000,g 15.1,4.0
# From MPEC 2021-S45
278P/McNaught,e,6.6969,15.3840,237.7002,3.685103,0.1393252,0.43639461,103.1610,09/22.0/2022,2000,g 14.0,4.0
# From MPEC 2022-K19
279P/LaSagra,e,5.0525,346.2319,5.8630,3.572744,0.1459490,0.39873919,329.4089,09/22.0/2022,2000,g 14.0,4.0
# From MPEC 2022-K19
280P/Larsen,e,11.7729,131.3915,104.7403,4.530175,0.1022190,0.41726728,327.6266,09/22.0/2022,2000,g 12.5,4.0
# From MPEC 2021-W31
281P/MOSS,e,4.7185,87.1805,26.6524,4.876288,0.0915314,0.17263172,347.8664,09/22.0/2022,2000,g 11.0,4.0
# From MPC133426
282P/,e,5.8117,9.2973,217.6213,4.238723,0.1129410,0.18817889,37.5477,09/22.0/2022,2000,g 13.5,2.0
# From MPEC 2022-K19
283P/Spacewatch,e,14.4553,161.1286,22.2251,4.136175,0.1171671,0.48452473,44.4150,09/22.0/2022,2000,g 16.0,2.0
# From MPEC 2022-K19
284P/McNaught,e,11.8613,144.2614,202.4185,3.675964,0.1398451,0.37543911,52.3620,09/22.0/2022,2000,g 13.0,4.0
# From MPEC 2022-S20
285P/LINEAR,e,25.0379,185.5074,178.4324,4.508682,0.1029508,0.61867622,348.4396,09/22.0/2022,2000,g 15.0,4.0
# From MPEC 2022-S20
286P/Christensen,e,17.0403,283.9404,24.8774,4.113162,0.1181518,0.42599519,15.6350,09/22.0/2022,2000,g 14.0,4.0
# From MPEC 2022-QD9
287P/Christensen,e,16.3212,139.0440,189.0787,4.163836,0.1160015,0.27120812,326.7218,09/22.0/2022,2000,g 13.5,4.0
# From MPC133426
288P/,e,3.2383,83.1236,280.2132,3.048579,0.1851646,0.20065467,37.8288,09/22.0/2022,2000,g 16.0,2.0
# From MPEC 2022-K19
289P/Blanpain,e,5.8981,68.8845,9.8402,3.045741,0.1854235,0.68588453,186.5142,09/22.0/2022,2000,g 19.0,4.0
# From MPC 95214
290P/Jager,e,20.0474,302.6737,181.8623,6.216418,0.0635907,0.62735861,201.1360,09/22.0/2022,2000,g 10.5,4.0
# From MPEC 2022-S20
291P/NEAT,e,6.3015,237.7215,173.5431,4.543930,0.1017552,0.43566407,337.1738,09/22.0/2022,2000,g 13.0,4.0
# From MPEC 2022-K19
292P/Li,e,24.2853,90.9360,319.5089,6.103011,0.0653714,0.58938101,206.1261,09/22.0/2022,2000,g 12.5,4.0
# From MPEC 2022-L66
293P/Spacewatch,e,9.0589,78.3982,40.9710,3.641454,0.1418377,0.41833721,91.0443,09/22.0/2022,2000,g 14.5,4.0
# From MPEC 2020-SI8
294P/LINEAR,e,17.9318,311.6454,235.8933,3.187066,0.1732277,0.60305659,177.2672,09/22.0/2022,2000,g 15.5,4.0
# From MPEC 2022-K19
295P/LINEAR,e,21.0740,7.4389,72.8770,5.305439,0.0806533,0.61685927,247.0464,09/22.0/2022,2000,g 12.0,4.0
# From MPEC 2021-N06
296P/Garradd,e,25.2395,263.5660,350.0156,3.492929,0.1509800,0.47876336,110.8884,09/22.0/2022,2000,g 14.0,4.0
# From MPC102956
297P/Beshore,e,10.2970,97.2822,133.5182,3.457614,0.1532990,0.32080476,92.6860,09/22.0/2022,2000,g 15.0,4.0
# From MPC114609
298P/Christensen,e,7.8707,52.8214,100.6400,3.590376,0.1448752,0.38628498,108.0764,09/22.0/2022,2000,g 15.0,4.0
# From MPEC 2022-CN4
299P/Catalina-PANSTARRS,e,10.4685,271.6100,323.7919,4.387611,0.1072413,0.28096725,297.0569,09/22.0/2022,2000,g 11.5,4.0
# From MPEC 2022-ED3
300P/Catalina,e,5.6739,95.6283,222.9424,2.699143,0.2222621,0.69171669,315.3020,09/22.0/2022,2000,g 16.0,4.0
# From MPC 89014
301P/LINEAR-NEAT,e,10.3394,351.1741,193.5909,5.740134,0.0716673,0.58530229,211.6123,09/22.0/2022,2000,g 13.0,4.0
# From MPEC 2022-K19
302P/Lemmon-PANSTARRS,e,6.0335,121.7392,208.4300,4.273733,0.1115560,0.23029730,259.7954,09/22.0/2022,2000,g 12.5,4.0
# From MPC 92278
303P/NEAT,e,7.0210,347.9697,356.9626,5.044478,0.0869921,0.51092706,251.6011,09/22.0/2022,2000,g 13.5,4.0
# From MPEC 2022-K19
304P/Ory,e,2.6073,58.9107,335.2556,3.150738,0.1762324,0.60086306,135.7379,09/22.0/2022,2000,g 16.5,4.0
# From MPC101100
305P/Skiff,e,11.6647,240.1020,147.3522,4.641042,0.0985782,0.69389616,282.4080,09/22.0/2022,2000,g 18.0,4.0
# From MPC 92278
306P/LINEAR,e,8.3102,341.3739,0.8783,3.123977,0.1785017,0.59322942,173.6510,09/22.0/2022,2000,g 19.0,4.0
# From MPC 92278
307P/LINEAR,e,4.4356,158.1678,222.1477,5.790105,0.0707415,0.67545307,200.0782,09/22.0/2022,2000,g 15.0,4.0
# From MPEC 2022-C56
308P/Lagerkvist-Carsenty,e,4.8538,63.0471,333.6390,6.600325,0.0581241,0.36442680,156.4680,09/22.0/2022,2000,g 13.0,2.0
# From MPC 94284
309P/LINEAR,e,17.0237,10.1465,49.9401,4.372780,0.1077873,0.61810592,300.2697,09/22.0/2022,2000,g 15.0,4.0
# From MPEC 2022-QD9
310P/Hill,e,13.1279,8.9206,31.7600,4.181383,0.1152721,0.42228036,314.2146,09/22.0/2022,2000,g 13.5,4.0
# From MPEC 2021-BE3
311P/PANSTARRS,e,4.9701,279.2124,144.5215,2.188164,0.3044978,0.11585749,217.5821,09/22.0/2022,2000,g 17.0,4.0
# From MPEC 2021-BE3
312P/NEAT,e,19.7660,144.6711,207.6340,3.469056,0.1525412,0.42780200,110.8672,09/22.0/2022,2000,g 16.0,4.0
# From MPEC 2021-S45
313P/Gibbs,e,10.9795,105.9620,254.8238,3.163870,0.1751363,0.23500682,155.6980,09/22.0/2022,2000,g 15.0,4.0
# From MPC105243
314P/Montani,e,3.9846,267.6060,213.9622,7.259921,0.0503856,0.41652523,109.6191,09/22.0/2022,2000,g  9.5,4.0
# From MPEC 2021-N06
315P/LONEOS,e,17.7378,68.7927,65.7345,4.940070,0.0897645,0.52095890,190.9101,09/22.0/2022,2000,g 11.0,4.0
# From MPC 92279
316P/LONEOS-Christensen,e,9.8246,246.3411,192.1352,4.379731,0.1075308,0.15588360,275.9808,09/22.0/2022,2000,g 13.5,4.0
# From MPEC 2020-C98
317P/WISE,e,11.9522,275.4875,334.8439,2.962658,0.1932777,0.57051411,140.3267,09/22.0/2022,2000,g 17.5,4.0
# From MPC102103
318P/McNaught-Hartley,e,17.8871,35.5159,313.3029,7.503264,0.0479544,0.67520092,120.9834,09/22.0/2022,2000,g  8.5,6.0
# From MPC 97499
319P/Catalina-McNaught,e,15.0949,111.3636,203.6700,3.566106,0.1463567,0.66662404,25.5512,09/22.0/2022,2000,g 15.0,4.0
# From MPC 96281
320P/McNaught,e,4.9068,295.9431,0.7854,3.094080,0.1810952,0.68539077,111.0101,09/22.0/2022,2000,g 20.5,4.0
# From MPC105243
321P/SOHO,e,20.0906,165.0175,172.7486,2.423305,0.2612715,0.98109918,0.0000,10/26.5722/2023,2000,g 20.0,4.0
# From MPC102103
322P/SOHO,e,11.4672,351.5213,56.8857,2.507732,0.2481890,0.97995017,0.0000,08/21.0827/2023,2000,g 19.0,4.0
# From MPEC 2016-Y36
323P/SOHO,e,5.3279,324.3964,353.0435,2.583219,0.2373898,0.98478903,0.0000,01/17.8352/2021,2000,g 20.0,4.0
# From MPEC 2021-W31
324P/LaSagra,e,21.4042,270.5850,57.5348,3.094465,0.1810613,0.15377516,91.4079,09/22.0/2022,2000,g 13.0,4.0
# From MPEC 2022-R68
325P/Yang-Gao,e,16.6935,257.5539,343.7239,3.523371,0.1490275,0.59341128,26.3468,09/22.0/2022,2000,g 14.0,4.0
# From MPC103849
326P/Hill,e,2.4711,99.8089,278.6469,4.062514,0.1203682,0.31819513,304.0841,09/22.0/2022,2000,g 13.5,4.0
# From MPEC 2022-S20
327P/VanNess,e,36.2502,173.9846,185.0266,3.563520,0.1465161,0.56333522,2.8739,09/22.0/2022,2000,g 16.0,4.0
# From MPC109148
328P/LONEOS-Tucker,e,17.6726,341.6308,30.5568,4.191668,0.1148481,0.55267765,282.4910,09/22.0/2022,2000,g 14.5,4.0
# From MPC101101
329P/LINEAR-Catalina,e,21.6977,87.6583,343.5380,5.188861,0.0833866,0.67799024,207.3955,09/22.0/2022,2000,g 13.5,4.0
# From MPEC 2022-K19
330P/Catalina,e,15.7053,293.0852,188.8695,6.623191,0.0578233,0.54866376,128.2799,09/22.0/2022,2000,g 12.0,4.0
# From MPEC 2022-C56
331P/Gibbs,e,9.7388,216.7538,184.4138,3.005287,0.1891800,0.04122358,136.0349,09/22.0/2022,2000,g 12.0,4.0
# From MPEC 2016-K18
332P/Ikeya-Murakami,e,9.3801,3.7858,152.3110,3.088008,0.1816296,0.48933099,72.5887,09/22.0/2022,2000,g 18.0,4.0
# From MPEC 2016-EI8
332P-B/Ikeya-Murakami,e,9.3805,3.8028,152.3711,3.082329,0.1821317,0.48970701,359.9699,03/17.0/2016,2000,g 19.0,4.0
# From MPEC 2016-K18
332P-C/Ikeya-Murakami,e,9.3791,3.7863,152.3023,3.087974,0.1816326,0.48933647,72.6040,09/22.0/2022,2000,g 16.5,4.0
# From MPEC 2016-ED0
332P-D/Ikeya-Murakami,e,9.3761,3.7923,152.4393,3.081138,0.1822373,0.48977814,359.9486,03/17.0/2016,2000,g 19.0,4.0
# From MPEC 2016-ED0
332P-E/Ikeya-Murakami,e,9.3774,3.8228,152.2825,3.079877,0.1823493,0.48922008,359.9889,03/17.0/2016,2000,g 21.0,4.0
